[{"OBJECT_NAME":"NETSAT-1","OBJECT_ID":"2020-068W","EPOCH":"2026-03-09T22:42:38.711232","MEAN_MOTION":15.32042482,"ECCENTRICITY":0.00057337,"INCLINATION":97.8751,"RA_OF_ASC_NODE":63.2583,"ARG_OF_PERICENTER":18.5877,"MEAN_ANOMALY":341.5572,"EPHEMERIS_TYPE":0,"CLASSIFICATION_TYPE":"U","NORAD_CAT_ID":46506,"ELEMENT_SET_NO":999,"REV_AT_EPOCH":30009,"BSTAR":0.00059222329,"MEAN_MOTION_DOT":0.00018269,"MEAN_MOTION_DDOT":0},{"OBJECT_NAME":"STARLINK-31529","OBJECT_ID":"2024-036C","EPOCH":"2026-03-09T07:02:47.727744","MEAN_MOTION":15.30193147,"ECCENTRICITY":0.00011253,"INCLINATION":53.1606,"RA_OF_ASC_NODE":77.7713,"ARG_OF_PERICENTER":89.5287,"MEAN_ANOMALY":270.5843,"EPHEMERIS_TYPE":0,"CLASSIFICATION_TYPE":"U","NORAD_CAT_ID":59000,"ELEMENT_SET_NO":999,"REV_AT_EPOCH":11521,"BSTAR":3.0341698e-5,"MEAN_MOTION_DOT":5.39e-6,"MEAN_MOTION_DDOT":0}]
